KUZGTU 1 (RS47S)        
1 57217U 23091AV  26204.58736172  .00012149  00000+0  41247-3 0  9997
2 57217  97.5044 269.4534 0009252 334.5289  25.5495 15.30611214169941
SONATE-2                
1 59112U 24043Q   26204.37832557  .00047130  00000+0  55216-3 0  9991
2 59112  97.5560 357.0780 0006369  79.1760 281.0214 15.61378243133539
MESAT1                  
1 60209U 24125G   26204.54589886  .00071775  00000+0  66095-3 0  9993
2 60209  97.2244  62.9588 0010318  87.1591 273.0851 15.67361391115251
OOV-CUBE (TUBSAT-30)    
1 60240U 24128F   26204.18460515  .00001732  00000+0  14199-3 0  9992
2 60240  61.9942 100.0399 0040077 141.8645 218.5295 15.02898344111520
COLIBRI-S (RS67S)       
1 61746U 24199M   26204.63837586  .00023335  00000+0  42936-3 0  9991
2 61746  97.2941  78.8525 0009702 135.3151 224.8884 15.49144335143058
HORS 3 (RS81S)          
1 61753U 24199U   26204.61217730  .00042348  00000+0  57627-3 0  9998
2 61753  97.2924  81.2345 0007928 131.6862 228.5073 15.57420163143226
HORS 4 (RS82S)          
1 61754U 24199V   26204.57980364  .00060432  00000+0  65987-3 0  9996
2 61754  97.2865  82.6631 0007601 126.7013 233.4945 15.63134062143326
SIT-2086                
1 61764U 24199AF  26204.63467231  .00044349  00000+0  64654-3 0  9996
2 61764  97.2881  81.6074 0008710 120.3906 239.8211 15.55536466140090
HYPERVIEW 1G (RS66S)    
1 61772U 24199AP  26204.50179839  .00251301  24723-4  89058-3 0  9991
2 61772  97.2769  86.3697 0007913 134.5722 225.6198 15.88954991140410
ALTAIR (RS65S)          
1 61779U 24199AW  26204.62730778  .00008208  00000+0  22382-3 0  9996
2 61779  97.2986  73.7449 0013001 166.2406 193.9196 15.37628891142710
ASRTU-1 (AO-123)        
1 61781U 24199AY  26204.58372748  .00008003  00000+0  22884-3 0  9993
2 61781  97.2958  72.9296 0013938 170.1372 190.0149 15.36146277139510
SAMSAT-IONOSPHERE (RS7*)
1 61784U 24199BB  26204.63997793  .00056529  00000+0  67461-3 0  9991
2 61784  97.2889  81.4597 0009979 135.0751 225.1316 15.60819135143244
RTU MIREA 1 (RS51S)     
1 61785U 24199BC  26204.63746493  .00074729  00000+0  75031-3 0  9995
2 61785  97.2872  82.5003 0009929 131.0497 229.1623 15.65193014140168
TEVEL2-4                
1 63213U 25052D   26204.16105969  .00019975  00000+0  57523-3 0  9995
2 63213  97.3852 100.6345 0002749  36.8578 323.2855 15.35785273 75634
TEVEL2-5                
1 63214U 25052E   26204.44646189  .00019471  00000+0  56402-3 0  9997
2 63214  97.3851 100.8580 0002730  37.4452 322.6982 15.35605621 75671
TEVEL2-6                
1 63215U 25052F   26204.45962708  .00020664  00000+0  59901-3 0  9990
2 63215  97.3858 100.8560 0002786  40.3663 319.7787 15.35571556 75674
TEVEL2-1                
1 63217U 25052H   26204.50179325  .00019446  00000+0  57430-3 0  9994
2 63217  97.3829 100.4780 0003444  42.4513 317.6997 15.34995797 75668
TEVEL2-3                
1 63218U 25052J   26204.23426581  .00018806  00000+0  55460-3 0  9994
2 63218  97.3843 100.2362 0003297  46.4433 313.7084 15.35048288 75625
TEVEL2-2                
1 63219U 25052K   26204.24110553  .00018973  00000+0  56041-3 0  9996
2 63219  97.3828 100.2199 0003546  42.9363 317.2156 15.34995797 75621
OTP-2                   
1 63235U 25052AB  26204.13749129  .00008011  00000+0  32920-3 0  9991
2 63235  97.3822  96.0335 0007687  49.2368 310.9536 15.24420687 75343
TEVEL2-9                
1 63237U 25052AD  26204.20089581  .00018012  00000+0  56778-3 0  9999
2 63237  97.3892  99.4742 0006789  34.0281 326.1395 15.32925043 75548
TEVEL2-7                
1 63238U 25052AE  26204.51019685  .00017379  00000+0  55326-3 0  9995
2 63238  97.3894  99.6834 0006911  33.4573 326.7104 15.32614693 75583
TEVEL2-8                
1 63239U 25052AF  26204.45350643  .00016811  00000+0  53559-3 0  9997
2 63239  97.3896  99.6027 0006974  34.4342 325.7351 15.32597225 75577
INNOSAT 16 (RS92S7)     
1 64878U 25155C   26204.60033822  .00005885  00000+0  23261-3 0  9991
2 64878  97.4587 171.6267 0012186  63.4067 296.8418 15.25808116 86222
GEOSCAN 6 (RS92S6)      
1 64879U 25155D   26204.59883649  .00010987  00000+0  37128-3 0  9996
2 64879  97.4576 173.3136 0009482  58.4292 301.7873 15.30782985 86338
GEOSCAN 1 (RS92S1)      
1 64880U 25155E   26204.58631452  .00011906  00000+0  39399-3 0  9994
2 64880  97.4573 173.4823 0009440  58.8783 301.3383 15.31440905 86341
239ALFEROV (RS61S)      
1 64881U 25155F   26204.56652306  .00015208  00000+0  46590-3 0  9994
2 64881  97.4572 174.1520 0009114  59.1279 301.0859 15.33856081 86382
GEOSCAN 2 (RS92S2)      
1 64890U 25155Q   26204.57377803  .00011433  00000+0  37557-3 0  9990
2 64890  97.4571 173.6363 0008428  49.0349 311.1620 15.31697710 86358
GEOSCAN 5 (RS92S5)      
1 64891U 25155R   26204.54818804  .00014939  00000+0  45350-3 0  9993
2 64891  97.4563 174.2847 0008201  64.5736 295.6354 15.34156262 86394
GEOSCAN 4 (RS92S4)      
1 64892U 25155S   26204.59374439  .00015879  00000+0  47920-3 0  9999
2 64892  97.4568 174.3902 0008082  65.0574 295.1507 15.34331482 86402
