OBJECT_NAME,OBJECT_ID,EPOCH,MEAN_MOTION,ECCENTRICITY,INCLINATION,RA_OF_ASC_NODE,ARG_OF_PERICENTER,MEAN_ANOMALY,EPHEMERIS_TYPE,CLASSIFICATION_TYPE,NORAD_CAT_ID,ELEMENT_SET_NO,REV_AT_EPOCH,BSTAR,MEAN_MOTION_DOT,MEAN_MOTION_DDOT
KUZGTU 1 (RS47S),2023-091AV,2026-07-23T14:05:48.052608,15.30611214,.00092523,97.5044,269.4534,334.5289,25.5495,0,U,57217,999,16994,.41247477E-3,.12149E-3,0
SONATE-2,2024-043Q,2026-07-23T09:04:47.329248,15.61378243,.00063692,97.5560,357.0780,79.1760,281.0214,0,U,59112,999,13353,.55216257E-3,.4713E-3,0
MESAT1,2024-125G,2026-07-23T13:06:05.661504,15.67361391,.00103189,97.2244,62.9588,87.1591,273.0851,0,U,60209,999,11525,.6609504E-3,.71775E-3,0
OOV-CUBE (TUBSAT-30),2024-128F,2026-07-23T04:25:49.884960,15.02898344,.00400777,61.9942,100.0399,141.8645,218.5295,0,U,60240,999,11152,.14199344E-3,.1732E-4,0
COLIBRI-S (RS67S),2024-199M,2026-07-23T15:19:15.674304,15.49144335,.00097023,97.2941,78.8525,135.3151,224.8884,0,U,61746,999,14305,.42935922E-3,.23335E-3,0
HORS 3 (RS81S),2024-199U,2026-07-23T14:41:32.118720,15.57420163,.00079283,97.2924,81.2345,131.6862,228.5073,0,U,61753,999,14322,.57627075E-3,.42348E-3,0
HORS 4 (RS82S),2024-199V,2026-07-23T13:54:55.034496,15.63134062,.00076019,97.2865,82.6631,126.7013,233.4945,0,U,61754,999,14332,.65986965E-3,.60432E-3,0
SIT-2086,2024-199AF,2026-07-23T15:13:55.687584,15.55536466,.00087103,97.2881,81.6074,120.3906,239.8211,0,U,61764,999,14009,.64653777E-3,.44349E-3,0
HYPERVIEW 1G (RS66S),2024-199AP,2026-07-23T12:02:35.380896,15.88954991,.0007913,97.2769,86.3697,134.5722,225.6198,0,U,61772,999,14041,.89058025E-3,.251301E-2,.24723255E-4
ALTAIR (RS65S),2024-199AW,2026-07-23T15:03:19.392192,15.37628891,.00130012,97.2986,73.7449,166.2406,193.9196,0,U,61779,999,14271,.22381869E-3,.8208E-4,0
ASRTU-1 (AO-123),2024-199AY,2026-07-23T14:00:34.054272,15.36146277,.00139384,97.2958,72.9296,170.1372,190.0149,0,U,61781,999,13951,.22884483E-3,.8003E-4,0
SAMSAT-IONOSPHERE (RS75S),2024-199BB,2026-07-23T15:21:34.093152,15.60819135,.00099799,97.2889,81.4597,135.0751,225.1316,0,U,61784,999,14324,.67460803E-3,.56529E-3,0
RTU MIREA 1 (RS51S),2024-199BC,2026-07-23T15:17:56.969952,15.65193014,.00099299,97.2872,82.5003,131.0497,229.1623,0,U,61785,999,14016,.75030622E-3,.74729E-3,0
TEVEL2-4,2025-052D,2026-07-23T03:51:55.557216,15.35785273,.00027495,97.3852,100.6345,36.8578,323.2855,0,U,63213,999,7563,.57522706E-3,.19975E-3,0
TEVEL2-5,2025-052E,2026-07-23T10:42:54.307296,15.35605621,.00027303,97.3851,100.8580,37.4452,322.6982,0,U,63214,999,7567,.56402184E-3,.19471E-3,0
TEVEL2-6,2025-052F,2026-07-23T11:01:51.779712,15.35571556,.00027864,97.3858,100.8560,40.3663,319.7787,0,U,63215,999,7567,.59901482E-3,.20664E-3,0
TEVEL2-1,2025-052H,2026-07-23T12:02:34.936800,15.34995797,.00034441,97.3829,100.4780,42.4513,317.6997,0,U,63217,999,7566,.57430233E-3,.19446E-3,0
TEVEL2-3,2025-052J,2026-07-23T05:37:20.565984,15.35048288,.00032977,97.3843,100.2362,46.4433,313.7084,0,U,63218,999,7562,.55460483E-3,.18806E-3,0
TEVEL2-2,2025-052K,2026-07-23T05:47:11.517792,15.34995797,.00035466,97.3828,100.2199,42.9363,317.2156,0,U,63219,999,7562,.5604146E-3,.18973E-3,0
OTP-2,2025-052AB,2026-07-23T03:17:59.247456,15.24420687,.00076872,97.3822,96.0335,49.2368,310.9536,0,U,63235,999,7534,.32919722E-3,.8011E-4,0
TEVEL2-9,2025-052AD,2026-07-23T04:49:17.397984,15.32925043,.00067892,97.3892,99.4742,34.0281,326.1395,0,U,63237,999,7554,.56777814E-3,.18012E-3,0
TEVEL2-7,2025-052AE,2026-07-23T12:14:41.007840,15.32614693,.00069112,97.3894,99.6834,33.4573,326.7104,0,U,63238,999,7558,.55326272E-3,.17379E-3,0
TEVEL2-8,2025-052AF,2026-07-23T10:53:02.955552,15.32597225,.00069744,97.3896,99.6027,34.4342,325.7351,0,U,63239,999,7557,.53558993E-3,.16811E-3,0
INNOSAT 16 (RS92S7),2025-155C,2026-07-23T14:24:29.222208,15.25808116,.00121869,97.4587,171.6267,63.4067,296.8418,0,U,64878,999,8622,.23261253E-3,.5885E-4,0
GEOSCAN 6 (RS92S6),2025-155D,2026-07-23T14:22:19.472736,15.30782985,.00094824,97.4576,173.3136,58.4292,301.7873,0,U,64879,999,8633,.371277E-3,.10987E-3,0
GEOSCAN 1 (RS92S1),2025-155E,2026-07-23T14:04:17.574528,15.31440905,.00094409,97.4573,173.4823,58.8783,301.3383,0,U,64880,999,8634,.39398521E-3,.11906E-3,0
239ALFEROV (RS61S),2025-155F,2026-07-23T13:35:47.592384,15.33856081,.00091141,97.4572,174.1520,59.1279,301.0859,0,U,64881,999,8638,.46590228E-3,.15208E-3,0
GEOSCAN 2 (RS92S2),2025-155Q,2026-07-23T13:46:14.421792,15.31697710,.00084283,97.4571,173.6363,49.0349,311.1620,0,U,64890,999,8635,.37556553E-3,.11433E-3,0
GEOSCAN 5 (RS92S5),2025-155R,2026-07-23T13:09:23.446656,15.34156262,.00082015,97.4563,174.2847,64.5736,295.6354,0,U,64891,999,8639,.45350062E-3,.14939E-3,0
GEOSCAN 4 (RS92S4),2025-155S,2026-07-23T14:14:59.515296,15.34331482,.00080822,97.4568,174.3902,65.0574,295.1507,0,U,64892,999,8640,.47920233E-3,.15879E-3,0
